[{"OBJECT_NAME":"STARLINK-5039","OBJECT_ID":"2023-094AF","EPOCH":"2026-03-09T22:00:01.999584","MEAN_MOTION":15.05792287,"ECCENTRICITY":7.583e-5,"INCLINATION":42.9999,"RA_OF_ASC_NODE":16.3753,"ARG_OF_PERICENTER":238.3271,"MEAN_ANOMALY":18.5973,"EPHEMERIS_TYPE":0,"CLASSIFICATION_TYPE":"U","NORAD_CAT_ID":57247,"ELEMENT_SET_NO":999,"REV_AT_EPOCH":577,"BSTAR":0.0020901308,"MEAN_MOTION_DOT":0.00030728,"MEAN_MOTION_DDOT":0},{"OBJECT_NAME":"CZ-6A DEB","OBJECT_ID":"2022-151UT","EPOCH":"2026-03-09T17:50:02.810976","MEAN_MOTION":14.9898329,"ECCENTRICITY":0.00453187,"INCLINATION":98.6222,"RA_OF_ASC_NODE":145.5138,"ARG_OF_PERICENTER":180.208,"MEAN_ANOMALY":179.9129,"EPHEMERIS_TYPE":0,"CLASSIFICATION_TYPE":"U","NORAD_CAT_ID":55003,"ELEMENT_SET_NO":999,"REV_AT_EPOCH":17561,"BSTAR":0.0047870048,"MEAN_MOTION_DOT":0.00059614,"MEAN_MOTION_DDOT":0}]
